[{"OBJECT_NAME":"ALOS (DAICHI)","OBJECT_ID":"2006-002A","EPOCH":"2026-04-22T06:35:04.425792","MEAN_MOTION":14.69930267,"ECCENTRICITY":0.00018492,"INCLINATION":98.1283,"RA_OF_ASC_NODE":68.0356,"ARG_OF_PERICENTER":107.6428,"MEAN_ANOMALY":252.4979,"EPHEMERIS_TYPE":0,"CLASSIFICATION_TYPE":"U","NORAD_CAT_ID":28931,"ELEMENT_SET_NO":999,"REV_AT_EPOCH":7988,"BSTAR":0.00014529964,"MEAN_MOTION_DOT":8.2e-6,"MEAN_MOTION_DDOT":0},{"OBJECT_NAME":"H-2A R/B","OBJECT_ID":"2006-002B","EPOCH":"2026-04-21T22:45:24.883488","MEAN_MOTION":15.1732466,"ECCENTRICITY":0.00526043,"INCLINATION":98.2502,"RA_OF_ASC_NODE":262.7457,"ARG_OF_PERICENTER":94.6502,"MEAN_ANOMALY":266.074,"EPHEMERIS_TYPE":0,"CLASSIFICATION_TYPE":"U","NORAD_CAT_ID":28932,"ELEMENT_SET_NO":999,"REV_AT_EPOCH":10099,"BSTAR":0.00036441619,"MEAN_MOTION_DOT":7.452e-5,"MEAN_MOTION_DDOT":0},{"OBJECT_NAME":"RESURS-DK 1","OBJECT_ID":"2006-021A","EPOCH":"2026-04-22T00:59:25.143936","MEAN_MOTION":15.1296885,"ECCENTRICITY":0.00029383,"INCLINATION":69.9296,"RA_OF_ASC_NODE":124.865,"ARG_OF_PERICENTER":347.8314,"MEAN_ANOMALY":12.2781,"EPHEMERIS_TYPE":0,"CLASSIFICATION_TYPE":"U","NORAD_CAT_ID":29228,"ELEMENT_SET_NO":999,"REV_AT_EPOCH":9408,"BSTAR":9.6527647e-5,"MEAN_MOTION_DOT":1.599e-5,"MEAN_MOTION_DDOT":0},{"OBJECT_NAME":"CZ-4B R/B","OBJECT_ID":"2006-046C","EPOCH":"2026-04-22T03:22:00.466752","MEAN_MOTION":15.17319068,"ECCENTRICITY":0.00345453,"INCLINATION":97.551,"RA_OF_ASC_NODE":156.9246,"ARG_OF_PERICENTER":116.0725,"MEAN_ANOMALY":244.407,"EPHEMERIS_TYPE":0,"CLASSIFICATION_TYPE":"U","NORAD_CAT_ID":29507,"ELEMENT_SET_NO":999,"REV_AT_EPOCH":6663,"BSTAR":0.00020609769,"MEAN_MOTION_DOT":4.102e-5,"MEAN_MOTION_DDOT":0},{"OBJECT_NAME":"CZ-2C R/B","OBJECT_ID":"2007-010B","EPOCH":"2026-04-22T06:20:21.212160","MEAN_MOTION":14.20261186,"ECCENTRICITY":0.00593599,"INCLINATION":98.4031,"RA_OF_ASC_NODE":223.3692,"ARG_OF_PERICENTER":166.4532,"MEAN_ANOMALY":193.8256,"EPHEMERIS_TYPE":0,"CLASSIFICATION_TYPE":"U","NORAD_CAT_ID":31114,"ELEMENT_SET_NO":999,"REV_AT_EPOCH":98590,"BSTAR":5.7856077e-5,"MEAN_MOTION_DOT":8.5e-7,"MEAN_MOTION_DDOT":0},{"OBJECT_NAME":"COSMO-SKYMED 1","OBJECT_ID":"2007-023A","EPOCH":"2026-04-22T07:42:04.199616","MEAN_MOTION":14.96820132,"ECCENTRICITY":0.00011038,"INCLINATION":97.8869,"RA_OF_ASC_NODE":303.7123,"ARG_OF_PERICENTER":98.4408,"MEAN_ANOMALY":261.6939,"EPHEMERIS_TYPE":0,"CLASSIFICATION_TYPE":"U","NORAD_CAT_ID":31598,"ELEMENT_SET_NO":999,"REV_AT_EPOCH":2143,"BSTAR":0.00016725878,"MEAN_MOTION_DOT":1.856e-5,"MEAN_MOTION_DDOT":0},{"OBJECT_NAME":"COSMOS 2428","OBJECT_ID":"2007-029A","EPOCH":"2026-04-22T03:27:57.730752","MEAN_MOTION":14.12946311,"ECCENTRICITY":0.00092521,"INCLINATION":70.9392,"RA_OF_ASC_NODE":112.1343,"ARG_OF_PERICENTER":229.6677,"MEAN_ANOMALY":130.3637,"EPHEMERIS_TYPE":0,"CLASSIFICATION_TYPE":"U","NORAD_CAT_ID":31792,"ELEMENT_SET_NO":999,"REV_AT_EPOCH":97023,"BSTAR":-8.4543013e-5,"MEAN_MOTION_DOT":-2.06e-6,"MEAN_MOTION_DDOT":0},{"OBJECT_NAME":"SL-16 R/B","OBJECT_ID":"2007-029B","EPOCH":"2026-04-21T23:21:01.185696","MEAN_MOTION":14.14842778,"ECCENTRICITY":0.00025658,"INCLINATION":70.9737,"RA_OF_ASC_NODE":81.3971,"ARG_OF_PERICENTER":268.8647,"MEAN_ANOMALY":148.3406,"EPHEMERIS_TYPE":0,"CLASSIFICATION_TYPE":"U","NORAD_CAT_ID":31793,"ELEMENT_SET_NO":999,"REV_AT_EPOCH":97149,"BSTAR":0.00012982963,"MEAN_MOTION_DOT":2.03e-6,"MEAN_MOTION_DDOT":0},{"OBJECT_NAME":"KORONAS-FOTON","OBJECT_ID":"2009-003A","EPOCH":"2026-04-22T07:37:59.144160","MEAN_MOTION":15.44477198,"ECCENTRICITY":0.00100672,"INCLINATION":82.4309,"RA_OF_ASC_NODE":230.4776,"ARG_OF_PERICENTER":4.4124,"MEAN_ANOMALY":355.7211,"EPHEMERIS_TYPE":0,"CLASSIFICATION_TYPE":"U","NORAD_CAT_ID":33504,"ELEMENT_SET_NO":999,"REV_AT_EPOCH":95247,"BSTAR":0.00020555156,"MEAN_MOTION_DOT":9.573e-5,"MEAN_MOTION_DDOT":0},{"OBJECT_NAME":"CZ-2C R/B","OBJECT_ID":"2011-030B","EPOCH":"2026-04-21T18:38:04.475616","MEAN_MOTION":14.81347337,"ECCENTRICITY":0.00516165,"INCLINATION":97.8612,"RA_OF_ASC_NODE":68.2028,"ARG_OF_PERICENTER":208.7224,"MEAN_ANOMALY":213.7652,"EPHEMERIS_TYPE":0,"CLASSIFICATION_TYPE":"U","NORAD_CAT_ID":37731,"ELEMENT_SET_NO":999,"REV_AT_EPOCH":79647,"BSTAR":8.3957131e-5,"MEAN_MOTION_DOT":6.16e-6,"MEAN_MOTION_DDOT":0},{"OBJECT_NAME":"H-2A R/B","OBJECT_ID":"2012-025E","EPOCH":"2026-04-22T03:46:31.134720","MEAN_MOTION":14.95425663,"ECCENTRICITY":0.00443332,"INCLINATION":98.4796,"RA_OF_ASC_NODE":82.714,"ARG_OF_PERICENTER":168.7112,"MEAN_ANOMALY":191.5111,"EPHEMERIS_TYPE":0,"CLASSIFICATION_TYPE":"U","NORAD_CAT_ID":38341,"ELEMENT_SET_NO":999,"REV_AT_EPOCH":75471,"BSTAR":0.0001143994,"MEAN_MOTION_DOT":1.219e-5,"MEAN_MOTION_DDOT":0},{"OBJECT_NAME":"SHIJIAN-16 (SJ-16)","OBJECT_ID":"2013-057A","EPOCH":"2026-04-22T06:27:32.050944","MEAN_MOTION":14.92468439,"ECCENTRICITY":0.00160467,"INCLINATION":74.9704,"RA_OF_ASC_NODE":102.5781,"ARG_OF_PERICENTER":0.8644,"MEAN_ANOMALY":359.2569,"EPHEMERIS_TYPE":0,"CLASSIFICATION_TYPE":"U","NORAD_CAT_ID":39358,"ELEMENT_SET_NO":999,"REV_AT_EPOCH":67800,"BSTAR":0.0001111702,"MEAN_MOTION_DOT":1.114e-5,"MEAN_MOTION_DDOT":0},{"OBJECT_NAME":"SL-4 R/B","OBJECT_ID":"2014-021B","EPOCH":"2026-04-22T05:42:23.476608","MEAN_MOTION":15.40595818,"ECCENTRICITY":0.00928943,"INCLINATION":51.6054,"RA_OF_ASC_NODE":124.5859,"ARG_OF_PERICENTER":262.2998,"MEAN_ANOMALY":96.743,"EPHEMERIS_TYPE":0,"CLASSIFICATION_TYPE":"U","NORAD_CAT_ID":39679,"ELEMENT_SET_NO":999,"REV_AT_EPOCH":66298,"BSTAR":0.00022038426,"MEAN_MOTION_DOT":0.00010175,"MEAN_MOTION_DDOT":0},{"OBJECT_NAME":"ALOS-2","OBJECT_ID":"2014-029A","EPOCH":"2026-04-22T06:35:12.117120","MEAN_MOTION":14.79462891,"ECCENTRICITY":0.00018383,"INCLINATION":97.9202,"RA_OF_ASC_NODE":210.2379,"ARG_OF_PERICENTER":87.8519,"MEAN_ANOMALY":272.2903,"EPHEMERIS_TYPE":0,"CLASSIFICATION_TYPE":"U","NORAD_CAT_ID":39766,"ELEMENT_SET_NO":999,"REV_AT_EPOCH":64331,"BSTAR":-6.1046029e-5,"MEAN_MOTION_DOT":-5.07e-6,"MEAN_MOTION_DDOT":0},{"OBJECT_NAME":"YAOGAN-29","OBJECT_ID":"2015-069A","EPOCH":"2026-04-22T07:31:11.414784","MEAN_MOTION":14.83040462,"ECCENTRICITY":0.00015733,"INCLINATION":98.0076,"RA_OF_ASC_NODE":140.8477,"ARG_OF_PERICENTER":145.5034,"MEAN_ANOMALY":214.6281,"EPHEMERIS_TYPE":0,"CLASSIFICATION_TYPE":"U","NORAD_CAT_ID":41038,"ELEMENT_SET_NO":999,"REV_AT_EPOCH":56234,"BSTAR":0.00011665721,"MEAN_MOTION_DOT":8.95e-6,"MEAN_MOTION_DDOT":0},{"OBJECT_NAME":"ASTRO-H (HITOMI)","OBJECT_ID":"2016-012A","EPOCH":"2026-04-22T06:11:21.499008","MEAN_MOTION":15.10254425,"ECCENTRICITY":0.00094337,"INCLINATION":30.9992,"RA_OF_ASC_NODE":75.327,"ARG_OF_PERICENTER":49.5671,"MEAN_ANOMALY":310.5788,"EPHEMERIS_TYPE":0,"CLASSIFICATION_TYPE":"U","NORAD_CAT_ID":41337,"ELEMENT_SET_NO":999,"REV_AT_EPOCH":55882,"BSTAR":0.00013102225,"MEAN_MOTION_DOT":2.293e-5,"MEAN_MOTION_DDOT":0}]
