ALOS (DAICHI)           
1 28931U 06002A   26112.27435678  .00000820  00000+0  14530-3 0  9990
2 28931  98.1283  68.0356 0001849 107.6428 252.4979 14.69930267 79881
H-2A R/B                
1 28932U 06002B   26111.94820467  .00007452  00000+0  36442-3 0  9992
2 28932  98.2502 262.7457 0052604  94.6502 266.0740 15.17324660100997
RESURS-DK 1             
1 29228U 06021A   26112.04126324  .00001599  00000+0  96528-4 0  9993
2 29228  69.9296 124.8650 0002938 347.8314  12.2781 15.12968850 94081
CZ-4B R/B               
1 29507U 06046C   26112.14028318  .00004102  00000+0  20610-3 0  9996
2 29507  97.5510 156.9246 0034545 116.0725 244.4070 15.17319068 66631
CZ-2C R/B               
1 31114U 07010B   26112.26413440  .00000085  00000+0  57856-4 0  9991
2 31114  98.4031 223.3692 0059359 166.4532 193.8256 14.20261186985908
COSMO-SKYMED 1          
1 31598U 07023A   26112.32088194  .00001856  00000+0  16726-3 0  9999
2 31598  97.8869 303.7123 0001103  98.4408 261.6939 14.96820132 21434
COSMOS 2428             
1 31792U 07029A   26112.14441818 -.00000206  00000+0 -84543-4 0  9990
2 31792  70.9392 112.1343 0009252 229.6677 130.3637 14.12946311970232
SL-16 R/B               
1 31793U 07029B   26111.97293039  .00000203  00000+0  12983-3 0  9994
2 31793  70.9737  81.3971 0002565 268.8647 148.3406 14.14842778971498
KORONAS-FOTON           
1 33504U 09003A   26112.31804565  .00009573  00000+0  20555-3 0  9994
2 33504  82.4309 230.4776 0010067   4.4124 355.7211 15.44477198952472
CZ-2C R/B               
1 37731U 11030B   26111.77644069  .00000616  00000+0  83957-4 0  9998
2 37731  97.8612  68.2028 0051616 208.7224 213.7652 14.81347337796476
H-2A R/B                
1 38341U 12025E   26112.15730480  .00001219  00000+0  11440-3 0  9994
2 38341  98.4796  82.7140 0044333 168.7112 191.5111 14.95425663754717
SHIJIAN-16 (SJ-16)      
1 39358U 13057A   26112.26912096  .00001114  00000+0  11117-3 0  9991
2 39358  74.9704 102.5781 0016046   0.8644 359.2569 14.92468439678004
SL-4 R/B                
1 39679U 14021B   26112.23777172  .00010175  00000+0  22038-3 0  9991
2 39679  51.6054 124.5859 0092894 262.2998  96.7430 15.40595818662987
ALOS-2                  
1 39766U 14029A   26112.27444580 -.00000507  00000+0 -61046-4 0  9997
2 39766  97.9202 210.2379 0001838  87.8519 272.2903 14.79462891643317
YAOGAN-29               
1 41038U 15069A   26112.31332656  .00000895  00000+0  11666-3 0  9992
2 41038  98.0076 140.8477 0001573 145.5034 214.6281 14.83040462562343
ASTRO-H (HITOMI)        
1 41337U 16012A   26112.25788772  .00002293  00000+0  13102-3 0  9991
2 41337  30.9992  75.3270 0009433  49.5671 310.5788 15.10254425558826
